{
  "type": "FeatureCollection",
  "features": [
    {
      "type": "Feature",
      "properties": {
        "norad_id": 59626,
        "name": "LEGION 2",
        "group": "resource",
        "lat": -82.3156272616212,
        "lon": 153.4163348706821,
        "alt_km": 522.4743289919679,
        "timestamp": "2025-12-02T23:34:15.171495+00:00",
        "meta_object_name": "LEGION 2",
        "meta_object_id": "2024-081B",
        "meta_epoch": "2025-12-02T11:18:12.849984",
        "meta_mean_motion": 15.16328131,
        "meta_eccentricity": 0.0006297,
        "meta_inclination": 97.5234,
        "meta_ra_of_asc_node": 51.2845,
        "meta_arg_of_pericenter": 335.4445,
        "meta_mean_anomaly": 24.6487,
        "meta_ephemeris_type": 0,
        "meta_classification_type": "U",
        "meta_norad_cat_id": 59626,
        "meta_element_set_no": 999,
        "meta_rev_at_epoch": 8772,
        "meta_bstar": 0.00033155,
        "meta_mean_motion_dot": 6.364e-05,
        "meta_mean_motion_ddot": 0,
        "tle_line1": "1 59626U 24081B   25336.47098206  .00006364  00000+0  33155-3 0  9996",
        "tle_line2": "2 59626  97.5234  51.2845 0006297 335.4445  24.6487 15.16328131 87723"
      },
      "geometry": {
        "type": "Point",
        "coordinates": [
          153.4163348706821,
          -82.3156272616212
        ]
      }
    },
    {
      "type": "Feature",
      "properties": {
        "norad_id": 60182,
        "name": "ALOS-4 (DAICHI-4)",
        "group": "resource",
        "lat": 38.23879605104121,
        "lon": -101.73113387298612,
        "alt_km": 627.5535488470969,
        "timestamp": "2025-12-02T23:34:15.171505+00:00",
        "meta_object_name": "ALOS-4 (DAICHI-4)",
        "meta_object_id": "2024-123A",
        "meta_epoch": "2025-11-30T09:15:12.370176",
        "meta_mean_motion": 14.79468497,
        "meta_eccentricity": 0.000127,
        "meta_inclination": 97.9232,
        "meta_ra_of_asc_node": 69.4089,
        "meta_arg_of_pericenter": 105.4124,
        "meta_mean_anomaly": 254.7228,
        "meta_ephemeris_type": 0,
        "meta_classification_type": "U",
        "meta_norad_cat_id": 60182,
        "meta_element_set_no": 999,
        "meta_rev_at_epoch": 7648,
        "meta_bstar": -8.429942e-06,
        "meta_mean_motion_dot": -1.14e-06,
        "meta_mean_motion_ddot": 0,
        "tle_line1": "1 60182U 24123A   25334.38555984 -.00000114  00000+0 -84299-5 0  9997",
        "tle_line2": "2 60182  97.9232  69.4089 0001270 105.4124 254.7228 14.79468497 76488"
      },
      "geometry": {
        "type": "Point",
        "coordinates": [
          -101.73113387298612,
          38.23879605104121
        ]
      }
    },
    {
      "type": "Feature",
      "properties": {
        "norad_id": 60452,
        "name": "LEGION 3",
        "group": "resource",
        "lat": -42.70379029006086,
        "lon": -110.1286896260196,
        "alt_km": 526.0661608744713,
        "timestamp": "2025-12-02T23:34:15.171516+00:00",
        "meta_object_name": "LEGION 3",
        "meta_object_id": "2024-146A",
        "meta_epoch": "2025-12-02T11:23:05.097120",
        "meta_mean_motion": 15.1558626,
        "meta_eccentricity": 0.0013693,
        "meta_inclination": 45.0024,
        "meta_ra_of_asc_node": 5.1567,
        "meta_arg_of_pericenter": 140.2883,
        "meta_mean_anomaly": 219.9,
        "meta_ephemeris_type": 0,
        "meta_classification_type": "U",
        "meta_norad_cat_id": 60452,
        "meta_element_set_no": 999,
        "meta_rev_at_epoch": 7217,
        "meta_bstar": 0.00035847,
        "meta_mean_motion_dot": 6.676e-05,
        "meta_mean_motion_ddot": 0,
        "tle_line1": "1 60452U 24146A   25336.47436455  .00006676  00000+0  35847-3 0  9995",
        "tle_line2": "2 60452  45.0024   5.1567 0013693 140.2883 219.9000 15.15586260 72173"
      },
      "geometry": {
        "type": "Point",
        "coordinates": [
          -110.1286896260196,
          -42.70379029006086
        ]
      }
    },
    {
      "type": "Feature",
      "properties": {
        "norad_id": 60453,
        "name": "LEGION 4",
        "group": "resource",
        "lat": -41.0355576294403,
        "lon": -25.405455496173353,
        "alt_km": 515.8920502105493,
        "timestamp": "2025-12-02T23:34:15.171526+00:00",
        "meta_object_name": "LEGION 4",
        "meta_object_id": "2024-146B",
        "meta_epoch": "2025-12-02T11:24:27.280800",
        "meta_mean_motion": 15.1564379,
        "meta_eccentricity": 0.0009872,
        "meta_inclination": 45.0375,
        "meta_ra_of_asc_node": 96.8703,
        "meta_arg_of_pericenter": 257.7186,
        "meta_mean_anomaly": 102.2587,
        "meta_ephemeris_type": 0,
        "meta_classification_type": "U",
        "meta_norad_cat_id": 60453,
        "meta_element_set_no": 999,
        "meta_rev_at_epoch": 7102,
        "meta_bstar": 0.00042238,
        "meta_mean_motion_dot": 7.92e-05,
        "meta_mean_motion_ddot": 0,
        "tle_line1": "1 60453U 24146B   25336.47531575  .00007920  00000+0  42238-3 0  9990",
        "tle_line2": "2 60453  45.0375  96.8703 0009872 257.7186 102.2587 15.15643790 71025"
      },
      "geometry": {
        "type": "Point",
        "coordinates": [
          -25.405455496173353,
          -41.0355576294403
        ]
      }
    },
    {
      "type": "Feature",
      "properties": {
        "norad_id": 60989,
        "name": "SENTINEL-2C",
        "group": "resource",
        "lat": 8.426829855567282,
        "lon": -129.11495653588995,
        "alt_km": 790.4821567035842,
        "timestamp": "2025-12-02T23:34:15.171538+00:00",
        "meta_object_name": "SENTINEL-2C",
        "meta_object_id": "2024-157A",
        "meta_epoch": "2025-12-02T05:59:22.248384",
        "meta_mean_motion": 14.30823406,
        "meta_eccentricity": 0.0001164,
        "meta_inclination": 98.5615,
        "meta_ra_of_asc_node": 48.8849,
        "meta_arg_of_pericenter": 102.2564,
        "meta_mean_anomaly": 257.8749,
        "meta_ephemeris_type": 0,
        "meta_classification_type": "U",
        "meta_norad_cat_id": 60989,
        "meta_element_set_no": 999,
        "meta_rev_at_epoch": 6482,
        "meta_bstar": 9.9964e-05,
        "meta_mean_motion_dot": 2.18e-06,
        "meta_mean_motion_ddot": 0,
        "tle_line1": "1 60989U 24157A   25336.24956306  .00000218  00000+0  99964-4 0  9996",
        "tle_line2": "2 60989  98.5615  48.8849 0001164 102.2564 257.8749 14.30823406 64824"
      },
      "geometry": {
        "type": "Point",
        "coordinates": [
          -129.11495653588995,
          8.426829855567282
        ]
      }
    },
    {
      "type": "Feature",
      "properties": {
        "norad_id": 61735,
        "name": "IONOSFERA-M 1",
        "group": "resource",
        "lat": 1.738894255334339,
        "lon": -153.36310817416665,
        "alt_km": 818.0409397568947,
        "timestamp": "2025-12-02T23:34:15.171549+00:00",
        "meta_object_name": "IONOSFERA-M 1",
        "meta_object_id": "2024-199A",
        "meta_epoch": "2025-12-02T13:26:07.425024",
        "meta_mean_motion": 14.22710325,
        "meta_eccentricity": 0.0001407,
        "meta_inclination": 98.7409,
        "meta_ra_of_asc_node": 206.4856,
        "meta_arg_of_pericenter": 36.3001,
        "meta_mean_anomaly": 323.8272,
        "meta_ephemeris_type": 0,
        "meta_classification_type": "U",
        "meta_norad_cat_id": 61735,
        "meta_element_set_no": 999,
        "meta_rev_at_epoch": 9974,
        "meta_bstar": 6.7063e-05,
        "meta_mean_motion_dot": 1.06e-06,
        "meta_mean_motion_ddot": 0,
        "tle_line1": "1 61735U 24199A   25336.55980816  .00000106  00000+0  67063-4 0  9990",
        "tle_line2": "2 61735  98.7409 206.4856 0001407  36.3001 323.8272 14.22710325 99740"
      },
      "geometry": {
        "type": "Point",
        "coordinates": [
          -153.36310817416665,
          1.738894255334339
        ]
      }
    },
    {
      "type": "Feature",
      "properties": {
        "norad_id": 61736,
        "name": "IONOSFERA-M 2",
        "group": "resource",
        "lat": -4.552240467018697,
        "lon": 26.1152309126417,
        "alt_km": 819.2430414141627,
        "timestamp": "2025-12-02T23:34:15.171559+00:00",
        "meta_object_name": "IONOSFERA-M 2",
        "meta_object_id": "2024-199B",
        "meta_epoch": "2025-12-02T12:34:45.682176",
        "meta_mean_motion": 14.22712418,
        "meta_eccentricity": 0.0001349,
        "meta_inclination": 98.7408,
        "meta_ra_of_asc_node": 206.3628,
        "meta_arg_of_pericenter": 122.9166,
        "meta_mean_anomaly": 237.2141,
        "meta_ephemeris_type": 0,
        "meta_classification_type": "U",
        "meta_norad_cat_id": 61736,
        "meta_element_set_no": 999,
        "meta_rev_at_epoch": 10286,
        "meta_bstar": 6.8928e-05,
        "meta_mean_motion_dot": 1.1e-06,
        "meta_mean_motion_ddot": 0,
        "tle_line1": "1 61736U 24199B   25336.52413984  .00000110  00000+0  68928-4 0  9991",
        "tle_line2": "2 61736  98.7408 206.3628 0001349 122.9166 237.2141 14.22712418102861"
      },
      "geometry": {
        "type": "Point",
        "coordinates": [
          26.1152309126417,
          -4.552240467018697
        ]
      }
    }
  ]
}